{
  "type": "FeatureCollection",
  "features": [
    {
      "type": "Feature",
      "properties": {
        "norad_id": 41772,
        "name": "SKYSAT-C5",
        "group": "resource",
        "lat": 1.973118145889398,
        "lon": -148.66286030970753,
        "alt_km": 463.7786858074023,
        "timestamp": "2025-12-13T08:49:15.350937+00:00",
        "meta_object_name": "SKYSAT-C5",
        "meta_object_id": "2016-058C",
        "meta_epoch": "2025-12-12T21:05:41.510688",
        "meta_mean_motion": 15.34770392,
        "meta_eccentricity": 0.00010518,
        "meta_inclination": 97.0765,
        "meta_ra_of_asc_node": 30.6231,
        "meta_arg_of_pericenter": 206.7689,
        "meta_mean_anomaly": 153.3501,
        "meta_ephemeris_type": 0,
        "meta_classification_type": "U",
        "meta_norad_cat_id": 41772,
        "meta_element_set_no": 999,
        "meta_rev_at_epoch": 51518,
        "meta_bstar": 0.00042060315,
        "meta_mean_motion_dot": 0.00014112,
        "meta_mean_motion_ddot": 0,
        "tle_line1": "1 41772U 16058C   25346.87895267  .00014112  00000+0  42060-3 0  9996",
        "tle_line2": "2 41772  97.0765  30.6231 0001051 206.7689 153.3501 15.34770392515186"
      },
      "geometry": {
        "type": "Point",
        "coordinates": [
          -148.66286030970753,
          1.973118145889398
        ]
      }
    },
    {
      "type": "Feature",
      "properties": {
        "norad_id": 41773,
        "name": "SKYSAT-C2",
        "group": "resource",
        "lat": -15.964514962007119,
        "lon": -170.15744098827795,
        "alt_km": 461.8251356043602,
        "timestamp": "2025-12-13T08:49:15.350948+00:00",
        "meta_object_name": "SKYSAT-C2",
        "meta_object_id": "2016-058D",
        "meta_epoch": "2025-12-13T00:09:36.634464",
        "meta_mean_motion": 15.37279313,
        "meta_eccentricity": 0.00042142,
        "meta_inclination": 97.0368,
        "meta_ra_of_asc_node": 11.522,
        "meta_arg_of_pericenter": 33.7062,
        "meta_mean_anomaly": 326.4451,
        "meta_ephemeris_type": 0,
        "meta_classification_type": "U",
        "meta_norad_cat_id": 41773,
        "meta_element_set_no": 999,
        "meta_rev_at_epoch": 51640,
        "meta_bstar": 0.00045670265,
        "meta_mean_motion_dot": 0.00016623,
        "meta_mean_motion_ddot": 0,
        "tle_line1": "1 41773U 16058D   25347.00667401  .00016623  00000+0  45670-3 0  9999",
        "tle_line2": "2 41773  97.0368  11.5220 0004214  33.7062 326.4451 15.37279313516402"
      },
      "geometry": {
        "type": "Point",
        "coordinates": [
          -170.15744098827795,
          -15.964514962007119
        ]
      }
    },
    {
      "type": "Feature",
      "properties": {
        "norad_id": 41774,
        "name": "SKYSAT-C3",
        "group": "resource",
        "lat": 40.17730028584709,
        "lon": 15.188604172293632,
        "alt_km": 429.58987589262415,
        "timestamp": "2025-12-13T08:49:15.350958+00:00",
        "meta_object_name": "SKYSAT-C3",
        "meta_object_id": "2016-058E",
        "meta_epoch": "2025-12-13T00:52:15.414528",
        "meta_mean_motion": 15.44408588,
        "meta_eccentricity": 0.00016362,
        "meta_inclination": 96.9306,
        "meta_ra_of_asc_node": 20.7681,
        "meta_arg_of_pericenter": 108.2836,
        "meta_mean_anomaly": 251.8592,
        "meta_ephemeris_type": 0,
        "meta_classification_type": "U",
        "meta_norad_cat_id": 41774,
        "meta_element_set_no": 999,
        "meta_rev_at_epoch": 51730,
        "meta_bstar": 0.00053748722,
        "meta_mean_motion_dot": 0.00024801,
        "meta_mean_motion_ddot": 0,
        "tle_line1": "1 41774U 16058E   25347.03628952  .00024801  00000+0  53749-3 0  9994",
        "tle_line2": "2 41774  96.9306  20.7681 0001636 108.2836 251.8592 15.44408588517301"
      },
      "geometry": {
        "type": "Point",
        "coordinates": [
          15.188604172293632,
          40.17730028584709
        ]
      }
    },
    {
      "type": "Feature",
      "properties": {
        "norad_id": 41785,
        "name": "ALSAT 1B",
        "group": "resource",
        "lat": 80.2231125363282,
        "lon": -128.34447667005017,
        "alt_km": 639.523219256952,
        "timestamp": "2025-12-13T08:49:15.350969+00:00",
        "meta_object_name": "ALSAT 1B",
        "meta_object_id": "2016-059C",
        "meta_epoch": "2025-12-13T00:13:50.231424",
        "meta_mean_motion": 14.72076414,
        "meta_eccentricity": 0.00107466,
        "meta_inclination": 97.7819,
        "meta_ra_of_asc_node": 358.7878,
        "meta_arg_of_pericenter": 102.3595,
        "meta_mean_anomaly": 257.8816,
        "meta_ephemeris_type": 0,
        "meta_classification_type": "U",
        "meta_norad_cat_id": 41785,
        "meta_element_set_no": 999,
        "meta_rev_at_epoch": 49318,
        "meta_bstar": 0.0001572249,
        "meta_mean_motion_dot": 9.42e-06,
        "meta_mean_motion_ddot": 0,
        "tle_line1": "1 41785U 16059C   25347.00960916  .00000942  00000+0  15722-3 0  9992",
        "tle_line2": "2 41785  97.7819 358.7878 0010746 102.3595 257.8816 14.72076414493185"
      },
      "geometry": {
        "type": "Point",
        "coordinates": [
          -128.34447667005017,
          80.2231125363282
        ]
      }
    },
    {
      "type": "Feature",
      "properties": {
        "norad_id": 41787,
        "name": "PATHFINDER 1",
        "group": "resource",
        "lat": 15.604235356580137,
        "lon": 172.30989791298188,
        "alt_km": 668.440623007753,
        "timestamp": "2025-12-13T08:49:15.350980+00:00",
        "meta_object_name": "PATHFINDER 1",
        "meta_object_id": "2016-059E",
        "meta_epoch": "2025-12-12T23:53:43.089504",
        "meta_mean_motion": 14.67321766,
        "meta_eccentricity": 0.00300287,
        "meta_inclination": 97.8139,
        "meta_ra_of_asc_node": 349.7573,
        "meta_arg_of_pericenter": 80.4484,
        "meta_mean_anomaly": 280.0112,
        "meta_ephemeris_type": 0,
        "meta_classification_type": "U",
        "meta_norad_cat_id": 41787,
        "meta_element_set_no": 999,
        "meta_rev_at_epoch": 49240,
        "meta_bstar": 0.00023072264,
        "meta_mean_motion_dot": 1.264e-05,
        "meta_mean_motion_ddot": 0,
        "tle_line1": "1 41787U 16059E   25346.99563761  .00001264  00000+0  23072-3 0  9993",
        "tle_line2": "2 41787  97.8139 349.7573 0030028  80.4484 280.0112 14.67321766492401"
      },
      "geometry": {
        "type": "Point",
        "coordinates": [
          172.30989791298188,
          15.604235356580137
        ]
      }
    },
    {
      "type": "Feature",
      "properties": {
        "norad_id": 41790,
        "name": "SCATSAT 1",
        "group": "resource",
        "lat": -3.2384132156408483,
        "lon": -136.41865947145385,
        "alt_km": 614.5315347821816,
        "timestamp": "2025-12-13T08:49:15.350990+00:00",
        "meta_object_name": "SCATSAT 1",
        "meta_object_id": "2016-059H",
        "meta_epoch": "2025-12-12T23:52:52.769280",
        "meta_mean_motion": 14.78938687,
        "meta_eccentricity": 0.00562961,
        "meta_inclination": 98.1466,
        "meta_ra_of_asc_node": 43.6686,
        "meta_arg_of_pericenter": 127.187,
        "meta_mean_anomaly": 233.4499,
        "meta_ephemeris_type": 0,
        "meta_classification_type": "U",
        "meta_norad_cat_id": 41790,
        "meta_element_set_no": 999,
        "meta_rev_at_epoch": 7406,
        "meta_bstar": 0.00036191356,
        "meta_mean_motion_dot": 2.685e-05,
        "meta_mean_motion_ddot": 0,
        "tle_line1": "1 41790U 16059H   25346.99505520  .00002685  00000+0  36191-3 0  9990",
        "tle_line2": "2 41790  98.1466  43.6686 0056296 127.1870 233.4499 14.78938687 74066"
      },
      "geometry": {
        "type": "Point",
        "coordinates": [
          -136.41865947145385,
          -3.2384132156408483
        ]
      }
    },
    {
      "type": "Feature",
      "properties": {
        "norad_id": 41875,
        "name": "GOKTURK 1A",
        "group": "resource",
        "lat": -50.1253296114844,
        "lon": 49.856169945233646,
        "alt_km": 691.8678395449924,
        "timestamp": "2025-12-13T08:49:15.351000+00:00",
        "meta_object_name": "GOKTURK 1A",
        "meta_object_id": "2016-073A",
        "meta_epoch": "2025-12-12T23:33:39.113280",
        "meta_mean_motion": 14.62781187,
        "meta_eccentricity": 0.00012071,
        "meta_inclination": 98.1422,
        "meta_ra_of_asc_node": 239.3437,
        "meta_arg_of_pericenter": 78.6707,
        "meta_mean_anomaly": 281.4631,
        "meta_ephemeris_type": 0,
        "meta_classification_type": "U",
        "meta_norad_cat_id": 41875,
        "meta_element_set_no": 999,
        "meta_rev_at_epoch": 48160,
        "meta_bstar": 0.00021723108,
        "meta_mean_motion_dot": 1.061e-05,
        "meta_mean_motion_ddot": 0,
        "tle_line1": "1 41875U 16073A   25346.98170270  .00001061  00000+0  21723-3 0  9991",
        "tle_line2": "2 41875  98.1422 239.3437 0001207  78.6707 281.4631 14.62781187481608"
      },
      "geometry": {
        "type": "Point",
        "coordinates": [
          49.856169945233646,
          -50.1253296114844
        ]
      }
    }
  ]
}